[
  {
    "id": "AF",
    "name": "é˜¿å¯Œæ±—",
    "name_en": "Afghanistan",
    "emoji": "ğŸ‡¦ğŸ‡«",
    "regions": [
      { "id": "AF-KAB", "name": "å–€å¸ƒå°”", "name_en": "Kabul", "type": "province" },
      { "id": "AF-HER", "name": "èµ«æ‹‰ç‰¹", "name_en": "Herat", "type": "province" },
      { "id": "AF-KAN", "name": "åå¤§å“ˆ", "name_en": "Kandahar", "type": "province" }
    ]
  },
  {
    "id": "AL",
    "name": "é˜¿å°”å·´å°¼äºš",
    "name_en": "Albania",
    "emoji": "ğŸ‡¦ğŸ‡±",
    "regions": [
      { "id": "AL-01", "name": "åœ°æ‹‰é‚£", "name_en": "Tirana", "type": "province" },
      { "id": "AL-02", "name": "éƒ½æ‹‰æ–¯", "name_en": "DurrÃ«s", "type": "province" }
    ]
  },
  {
    "id": "DZ",
    "name": "é˜¿å°”åŠåˆ©äºš",
    "name_en": "Algeria",
    "emoji": "ğŸ‡©ğŸ‡¿",
    "regions": [
      { "id": "DZ-16", "name": "é˜¿å°”åŠå°”", "name_en": "Algiers", "type": "province" },
      { "id": "DZ-09", "name": "å¥¥å…°", "name_en": "Oran", "type": "province" }
    ]
  },
  {
    "id": "AR",
    "name": "é˜¿æ ¹å»·",
    "name_en": "Argentina",
    "emoji": "ğŸ‡¦ğŸ‡·",
    "regions": [
      { "id": "AR-C", "name": "å¸ƒå®œè¯ºæ–¯è‰¾åˆ©æ–¯", "name_en": "Buenos Aires", "type": "autonomous city" },
      { "id": "AR-B", "name": "å¸ƒå®œè¯ºæ–¯è‰¾åˆ©æ–¯çœ", "name_en": "Buenos Aires Province", "type": "province" },
      { "id": "AR-X", "name": "ç§‘å°”å¤šç“¦", "name_en": "CÃ³rdoba", "type": "province" },
      { "id": "AR-S", "name": "åœ£è²", "name_en": "Santa Fe", "type": "province" },
      { "id": "AR-M", "name": "é—¨å¤šè¨", "name_en": "Mendoza", "type": "province" }
    ]
  },
  {
    "id": "AU",
    "name": "æ¾³å¤§åˆ©äºš",
    "name_en": "Australia",
    "emoji": "ğŸ‡¦ğŸ‡º",
    "regions": [
      { "id": "AU-NSW", "name": "æ–°å—å¨å°”å£«", "name_en": "New South Wales", "type": "state" },
      { "id": "AU-VIC", "name": "ç»´å¤šåˆ©äºš", "name_en": "Victoria", "type": "state" },
      { "id": "AU-QLD", "name": "æ˜†å£«å…°", "name_en": "Queensland", "type": "state" },
      { "id": "AU-WA", "name": "è¥¿æ¾³å¤§åˆ©äºš", "name_en": "Western Australia", "type": "state" },
      { "id": "AU-SA", "name": "å—æ¾³å¤§åˆ©äºš", "name_en": "South Australia", "type": "state" }
    ]
  },
  {
    "id": "BR",
    "name": "å·´è¥¿",
    "name_en": "Brazil",
    "emoji": "ğŸ‡§ğŸ‡·",
    "regions": [
      { "id": "BR-SP", "name": "åœ£ä¿ç½—", "name_en": "SÃ£o Paulo", "type": "state" },
      { "id": "BR-RJ", "name": "é‡Œçº¦çƒ­å†…å¢", "name_en": "Rio de Janeiro", "type": "state" },
      { "id": "BR-MG", "name": "ç±³çº³æ–¯å‰æ‹‰æ–¯", "name_en": "Minas Gerais", "type": "state" },
      { "id": "BR-BA", "name": "å·´ä¼Šäºš", "name_en": "Bahia", "type": "state" }
    ]
  },
  {
    "id": "CA",
    "name": "åŠ æ‹¿å¤§",
    "name_en": "Canada",
    "emoji": "ğŸ‡¨ğŸ‡¦",
    "regions": [
      { "id": "CA-ON", "name": "å®‰å¤§ç•¥", "name_en": "Ontario", "type": "province" },
      { "id": "CA-QC", "name": "é­åŒ—å…‹", "name_en": "Quebec", "type": "province" },
      { "id": "CA-BC", "name": "ä¸åˆ—é¢ å“¥ä¼¦æ¯”äºš", "name_en": "British Columbia", "type": "province" },
      { "id": "CA-AB", "name": "è‰¾ä¼¯å¡”", "name_en": "Alberta", "type": "province" }
    ]
  },
  {
    "id": "CN",
    "name": "ä¸­å›½",
    "name_en": "China",
    "emoji": "ğŸ‡¨ğŸ‡³",
    "regions": [
      { "id": "CN-BJ", "name": "åŒ—äº¬", "name_en": "Beijing", "type": "municipality" },
      { "id": "CN-SH", "name": "ä¸Šæµ·", "name_en": "Shanghai", "type": "municipality" },
      { "id": "CN-GD", "name": "å¹¿ä¸œ", "name_en": "Guangdong", "type": "province" },
      { "id": "CN-ZJ", "name": "æµ™æ±Ÿ", "name_en": "Zhejiang", "type": "province" },
      { "id": "CN-JS", "name": "æ±Ÿè‹", "name_en": "Jiangsu", "type": "province" },
      { "id": "CN-SD", "name": "å±±ä¸œ", "name_en": "Shandong", "type": "province" }
    ]
  },
  {
    "id": "FR",
    "name": "æ³•å›½",
    "name_en": "France",
    "emoji": "ğŸ‡«ğŸ‡·",
    "regions": [
      { "id": "FR-IDF", "name": "æ³•å…°è¥¿å²›", "name_en": "Ãle-de-France", "type": "region" },
      { "id": "FR-ARA", "name": "å¥¥å¼—æ¶…-ç½—çº³-é˜¿å°”å‘æ–¯", "name_en": "Auvergne-RhÃ´ne-Alpes", "type": "region" },
      { "id": "FR-PAC", "name": "æ™®ç½—æ—ºæ–¯-é˜¿å°”å‘æ–¯-è“è‰²æµ·å²¸", "name_en": "Provence-Alpes-CÃ´te d'Azur", "type": "region" }
    ]
  },
  {
    "id": "DE",
    "name": "å¾·å›½",
    "name_en": "Germany",
    "emoji": "ğŸ‡©ğŸ‡ª",
    "regions": [
      { "id": "DE-BE", "name": "æŸæ—", "name_en": "Berlin", "type": "state" },
      { "id": "DE-BY", "name": "å·´ä¼åˆ©äºš", "name_en": "Bavaria", "type": "state" },
      { "id": "DE-HE", "name": "é»‘æ£®", "name_en": "Hesse", "type": "state" },
      { "id": "DE-NW", "name": "åŒ—è±èŒµ-å¨æ–¯ç‰¹æ³•ä¼¦", "name_en": "North Rhine-Westphalia", "type": "state" }
    ]
  },
  {
    "id": "IN",
    "name": "å°åº¦",
    "name_en": "India",
    "emoji": "ğŸ‡®ğŸ‡³",
    "regions": [
      { "id": "IN-DL", "name": "å¾·é‡Œ", "name_en": "Delhi", "type": "union territory" },
      { "id": "IN-MH", "name": "é©¬å“ˆæ‹‰æ–½ç‰¹æ‹‰", "name_en": "Maharashtra", "type": "state" },
      { "id": "IN-KA", "name": "å¡çº³å¡”å…‹", "name_en": "Karnataka", "type": "state" },
      { "id": "IN-TN", "name": "æ³°ç±³å°”çº³å¾·", "name_en": "Tamil Nadu", "type": "state" }
    ]
  },
  {
    "id": "ID",
    "name": "å°åº¦å°¼è¥¿äºš",
    "name_en": "Indonesia",
    "emoji": "ğŸ‡®ğŸ‡©",
    "regions": [
      { "id": "ID-JK", "name": "é›…åŠ è¾¾", "name_en": "Jakarta", "type": "province" },
      { "id": "ID-JB", "name": "è¥¿çˆªå“‡", "name_en": "West Java", "type": "province" },
      { "id": "ID-JT", "name": "ä¸­çˆªå“‡", "name_en": "Central Java", "type": "province" },
      { "id": "ID-JI", "name": "ä¸œçˆªå“‡", "name_en": "East Java", "type": "province" }
    ]
  },
  {
    "id": "IT",
    "name": "æ„å¤§åˆ©",
    "name_en": "Italy",
    "emoji": "ğŸ‡®ğŸ‡¹",
    "regions": [
      { "id": "IT-62", "name": "æ‹‰é½å¥¥", "name_en": "Lazio", "type": "region" },
      { "id": "IT-25", "name": "ä¼¦å·´ç¬¬", "name_en": "Lombardy", "type": "region" },
      { "id": "IT-82", "name": "è¥¿è¥¿é‡Œ", "name_en": "Sicily", "type": "region" }
    ]
  },
  {
    "id": "JP",
    "name": "æ—¥æœ¬",
    "name_en": "Japan",
    "emoji": "ğŸ‡¯ğŸ‡µ",
    "regions": [
      { "id": "JP-13", "name": "ä¸œäº¬", "name_en": "Tokyo", "type": "prefecture" },
      { "id": "JP-27", "name": "å¤§é˜ª", "name_en": "Osaka", "type": "prefecture" },
      { "id": "JP-14", "name": "ç¥å¥ˆå·", "name_en": "Kanagawa", "type": "prefecture" },
      { "id": "JP-23", "name": "çˆ±çŸ¥", "name_en": "Aichi", "type": "prefecture" }
    ]
  },
  {
    "id": "KR",
    "name": "éŸ©å›½",
    "name_en": "South Korea",
    "emoji": "ğŸ‡°ğŸ‡·",
    "regions": [
      { "id": "KR-11", "name": "é¦–å°”", "name_en": "Seoul", "type": "city" },
      { "id": "KR-41", "name": "äº¬ç•¿é“", "name_en": "Gyeonggi", "type": "province" },
      { "id": "KR-26", "name": "é‡œå±±", "name_en": "Busan", "type": "city" },
      { "id": "KR-27", "name": "å¤§é‚±", "name_en": "Daegu", "type": "city" }
    ]
  },
  {
    "id": "MX",
    "name": "å¢¨è¥¿å“¥",
    "name_en": "Mexico",
    "emoji": "ğŸ‡²ğŸ‡½",
    "regions": [
      { "id": "MX-CMX", "name": "å¢¨è¥¿å“¥åŸ", "name_en": "Mexico City", "type": "federal entity" },
      { "id": "MX-JAL", "name": "å“ˆåˆ©æ–¯ç§‘", "name_en": "Jalisco", "type": "state" },
      { "id": "MX-NLE", "name": "æ–°è±æ˜‚", "name_en": "Nuevo LeÃ³n", "type": "state" }
    ]
  },
  {
    "id": "NL",
    "name": "è·å…°",
    "name_en": "Netherlands",
    "emoji": "ğŸ‡³ğŸ‡±",
    "regions": [
      { "id": "NL-NH", "name": "åŒ—è·å…°", "name_en": "North Holland", "type": "province" },
      { "id": "NL-ZH", "name": "å—è·å…°", "name_en": "South Holland", "type": "province" },
      { "id": "NL-UT", "name": "ä¹Œå¾—å‹’æ”¯", "name_en": "Utrecht", "type": "province" }
    ]
  },
  {
    "id": "RU",
    "name": "ä¿„ç½—æ–¯",
    "name_en": "Russia",
    "emoji": "ğŸ‡·ğŸ‡º",
    "regions": [
      { "id": "RU-MOW", "name": "è«æ–¯ç§‘", "name_en": "Moscow", "type": "federal city" },
      { "id": "RU-SPE", "name": "åœ£å½¼å¾—å ¡", "name_en": "Saint Petersburg", "type": "federal city" },
      { "id": "RU-MOS", "name": "è«æ–¯ç§‘å·", "name_en": "Moscow Oblast", "type": "oblast" }
    ]
  },
  {
    "id": "SG",
    "name": "æ–°åŠ å¡",
    "name_en": "Singapore",
    "emoji": "ğŸ‡¸ğŸ‡¬",
    "regions": [
      { "id": "SG-01", "name": "ä¸­åŒº", "name_en": "Central Region", "type": "region" },
      { "id": "SG-02", "name": "ä¸œåŒº", "name_en": "East Region", "type": "region" },
      { "id": "SG-03", "name": "åŒ—åŒº", "name_en": "North Region", "type": "region" },
      { "id": "SG-04", "name": "ä¸œåŒ—åŒº", "name_en": "North-East Region", "type": "region" },
      { "id": "SG-05", "name": "è¥¿åŒº", "name_en": "West Region", "type": "region" }
    ]
  },
  {
    "id": "ES",
    "name": "è¥¿ç­ç‰™",
    "name_en": "Spain",
    "emoji": "ğŸ‡ªğŸ‡¸",
    "regions": [
      { "id": "ES-MD", "name": "é©¬å¾·é‡Œ", "name_en": "Madrid", "type": "autonomous community" },
      { "id": "ES-CT", "name": "åŠ æ³°ç½—å°¼äºš", "name_en": "Catalonia", "type": "autonomous community" },
      { "id": "ES-AN", "name": "å®‰è¾¾å¢è¥¿äºš", "name_en": "Andalusia", "type": "autonomous community" }
    ]
  },
  {
    "id": "SE",
    "name": "ç‘å…¸",
    "name_en": "Sweden",
    "emoji": "ğŸ‡¸ğŸ‡ª",
    "regions": [
      { "id": "SE-AB", "name": "æ–¯å¾·å“¥å°”æ‘©", "name_en": "Stockholm", "type": "county" },
      { "id": "SE-O", "name": "è¥¿çº¦ç‰¹å…°", "name_en": "VÃ¤stra GÃ¶taland", "type": "county" },
      { "id": "SE-M", "name": "æ–¯ç§‘è®·", "name_en": "SkÃ¥ne", "type": "county" }
    ]
  },
  {
    "id": "CH",
    "name": "ç‘å£«",
    "name_en": "Switzerland",
    "emoji": "ğŸ‡¨ğŸ‡­",
    "regions": [
      { "id": "CH-ZH", "name": "è‹é»ä¸–", "name_en": "Zurich", "type": "canton" },
      { "id": "CH-BE", "name": "ä¼¯å°”å°¼", "name_en": "Bern", "type": "canton" },
      { "id": "CH-GE", "name": "æ—¥å†…ç“¦", "name_en": "Geneva", "type": "canton" }
    ]
  },
  {
    "id": "TH",
    "name": "æ³°å›½",
    "name_en": "Thailand",
    "emoji": "ğŸ‡¹ğŸ‡­",
    "regions": [
      { "id": "TH-10", "name": "æ›¼è°·", "name_en": "Bangkok", "type": "province" },
      { "id": "TH-50", "name": "æ¸…è¿ˆ", "name_en": "Chiang Mai", "type": "province" },
      { "id": "TH-83", "name": "æ™®å‰", "name_en": "Phuket", "type": "province" }
    ]
  },
  {
    "id": "TR",
    "name": "åœŸè€³å…¶",
    "name_en": "Turkey",
    "emoji": "ğŸ‡¹ğŸ‡·",
    "regions": [
      { "id": "TR-34", "name": "ä¼Šæ–¯å¦å¸ƒå°”", "name_en": "Istanbul", "type": "province" },
      { "id": "TR-06", "name": "å®‰å¡æ‹‰", "name_en": "Ankara", "type": "province" },
      { "id": "TR-35", "name": "ä¼Šå…¹å¯†å°”", "name_en": "Izmir", "type": "province" }
    ]
  },
  {
    "id": "AE",
    "name": "é˜¿è”é…‹",
    "name_en": "United Arab Emirates",
    "emoji": "ğŸ‡¦ğŸ‡ª",
    "regions": [
      { "id": "AE-DU", "name": "è¿ªæ‹œ", "name_en": "Dubai", "type": "emirate" },
      { "id": "AE-AZ", "name": "é˜¿å¸ƒæ‰æ¯”", "name_en": "Abu Dhabi", "type": "emirate" },
      { "id": "AE-SH", "name": "æ²™è¿¦", "name_en": "Sharjah", "type": "emirate" }
    ]
  },
  {
    "id": "GB",
    "name": "è‹±å›½",
    "name_en": "United Kingdom",
    "emoji": "ğŸ‡¬ğŸ‡§",
    "regions": [
      { "id": "GB-ENG", "name": "è‹±æ ¼å…°", "name_en": "England", "type": "country" },
      { "id": "GB-SCT", "name": "è‹æ ¼å…°", "name_en": "Scotland", "type": "country" },
      { "id": "GB-WLS", "name": "å¨å°”å£«", "name_en": "Wales", "type": "country" },
      { "id": "GB-NIR", "name": "åŒ—çˆ±å°”å…°", "name_en": "Northern Ireland", "type": "country" }
    ]
  },
  {
    "id": "US",
    "name": "ç¾å›½",
    "name_en": "United States",
    "emoji": "ğŸ‡ºğŸ‡¸",
    "regions": [
      { "id": "US-CA", "name": "åŠ åˆ©ç¦å°¼äºš", "name_en": "California", "type": "state" },
      { "id": "US-TX", "name": "å¾—å…‹è¨æ–¯", "name_en": "Texas", "type": "state" },
      { "id": "US-NY", "name": "çº½çº¦", "name_en": "New York", "type": "state" },
      { "id": "US-FL", "name": "ä½›ç½—é‡Œè¾¾", "name_en": "Florida", "type": "state" },
      { "id": "US-IL", "name": "ä¼Šåˆ©è¯ºä¼Š", "name_en": "Illinois", "type": "state" },
      { "id": "US-WA", "name": "åç››é¡¿", "name_en": "Washington", "type": "state" }
    ]
  },
  {
    "id": "VN",
    "name": "è¶Šå—",
    "name_en": "Vietnam",
    "emoji": "ğŸ‡»ğŸ‡³",
    "regions": [
      { "id": "VN-HN", "name": "æ²³å†…", "name_en": "Hanoi", "type": "municipality" },
      { "id": "VN-SG", "name": "èƒ¡å¿—æ˜å¸‚", "name_en": "Ho Chi Minh City", "type": "municipality" },
      { "id": "VN-DN", "name": "å²˜æ¸¯", "name_en": "Da Nang", "type": "municipality" }
    ]
  }
]

